     2.10           NAVIGATION DATA                         RINEX VERSION / TYPE
SPIDER V4,0,0,3554                      2015 04 17 01:40    PGM / RUN BY / DATE 
   1.6764D-08  0.0000D+00 -1.1921D-07  5.9605D-08           ION ALPHA           
   1.2288D+05 -3.2768D+04 -1.9661D+05 -6.5536D+04           ION BETA            
   -2.793967723846D-09-1.421085471520D-14   319488     1833 DELTA-UTC: A0,A1,T,W
    16                                                      LEAP SECONDS        
                                                            END OF HEADER       
23 15 02 22 14 00  0.0-9.054318070412D-05-2.614797267597D-12 0.000000000000D+00
    9.100000000000D+01 7.696875000000D+01 5.201288288958D-09 1.216416777899D-01
    3.989785909653D-06 9.794287267141D-03 4.399567842484D-06 5.153657245636D+03
    5.040000000000D+04 1.247972249985D-07 1.797374926577D+00 1.043081283569D-07
    9.488377557696D-01 2.846562500000D+02-2.712412420945D+00-8.759650782508D-09
    1.635782481690D-10 1.000000000000D+00 1.833000000000D+03 0.000000000000D+00
    2.000000000000D+00 0.000000000000D+00-2.002343535423D-08 9.100000000000D+01
    5.040000000000D+04 0.000000000000D+00
28 15 02 22 14 00  0.0 4.212819039822D-04 2.614797267597D-12 0.000000000000D+00
    4.300000000000D+01-1.243750000000D+01 3.470144616102D-09 2.162265480431D+00
   -6.612390279770D-07 1.966595347039D-02 1.297518610954D-05 5.153694746017D+03
    5.040000000000D+04 2.961605787277D-07-2.328852081694D+00-1.862645149231D-07
    9.885101308433D-01 1.377812500000D+02-1.669647505189D+00-7.285660519329D-09
    1.953652795095D-10 1.000000000000D+00 1.833000000000D+03 0.000000000000D+00
    2.000000000000D+00 0.000000000000D+00-1.117587089539D-08 4.300000000000D+01
    5.040000000000D+04 0.000000000000D+00
30 15 02 22 14 00  0.0-8.362578228116D-05 1.705302565824D-12 0.000000000000D+00
    8.800000000000D+01-6.900000000000D+01 4.674123310622D-09-1.286695804228D+00
   -3.641471266747D-06 1.022915123031D-03 6.601214408875D-06 5.153768640518D+03
    5.040000000000D+04-6.705522537231D-08 2.914288073396D+00 1.862645149231D-08
    9.570762623194D-01 2.503125000000D+02 2.926251573141D+00-8.318917998906D-09
   -5.078782949752D-10 1.000000000000D+00 1.833000000000D+03 0.000000000000D+00
    2.000000000000D+00 0.000000000000D+00 3.259629011154D-09 8.800000000000D+01
    5.040000000000D+04 0.000000000000D+00
 7 15 02 22 13 59 44.0 4.423642531037D-04 3.069544618484D-12 0.000000000000D+00
    1.900000000000D+01-6.746875000000D+01 4.369110406799D-09-1.397191082000D+00
   -3.596767783165D-06 8.028965210542D-03 6.409361958504D-06 5.153732463837D+03
    5.038400000000D+04 5.401670932770D-08 2.863655113770D+00-1.322478055954D-07
    9.713480683174D-01 2.609375000000D+02-2.753493545167D+00-8.135338624982D-09
   -4.646622253635D-10 1.000000000000D+00 1.833000000000D+03 0.000000000000D+00
    2.000000000000D+00 0.000000000000D+00-1.117587089539D-08 1.900000000000D+01
    5.038400000000D+04 0.000000000000D+00
15 15 02 22 14 00  0.0-2.337815240026D-04-2.273736754432D-12 0.000000000000D+00
    1.800000000000D+01 8.196875000000D+01 5.527373225789D-09 5.541373684914D-01
    4.455447196960D-06 7.082068710588D-03 5.254521965981D-06 5.153594469070D+03
    5.040000000000D+04 2.421438694000D-08 1.746559482550D+00 4.284083843231D-08
    9.337028500486D-01 2.587187500000D+02 3.795983650299D-01-8.802152784426D-09
    1.707213953539D-10 1.000000000000D+00 1.833000000000D+03 0.000000000000D+00
    2.000000000000D+00 0.000000000000D+00-1.071020960808D-08 1.800000000000D+01
    5.040000000000D+04 0.000000000000D+00
30 15 02 22 13 59 44.0-8.362578228116D-05 1.705302565824D-12 0.000000000000D+00
    3.000000000000D+00-6.900000000000D+01 4.674123310622D-09-1.289030839457D+00
   -3.641471266747D-06 1.022923504934D-03 6.601214408875D-06 5.153768644333D+03
    5.038400000000D+04-6.705522537231D-08 2.914288202133D+00 1.862645149231D-08
    9.570762813373D-01 2.503125000000D+02 2.926252954136D+00-8.318917998906D-09
   -5.075211362282D-10 1.000000000000D+00 1.833000000000D+03 0.000000000000D+00
    2.000000000000D+00 0.000000000000D+00 3.259629011154D-09 3.000000000000D+00
    5.038400000000D+04 0.000000000000D+00
 5 15 02 22 16 00  0.0-2.756458707154D-04 5.002220859751D-12 0.000000000000D+00
    7.800000000000D+01 2.653125000000D+01 4.725554170193D-09-3.120599660656D+00
    1.329928636551D-06 4.030233831145D-03 1.335330307484D-05 5.153783981323D+03
    5.760000000000D+04-5.215406417847D-08 7.377483117099D-01-6.705522537231D-08
    9.468404907698D-01 1.147500000000D+02 4.190065985410D-01-7.985689443046D-09
   -3.821587837849D-11 1.000000000000D+00 1.833000000000D+03 0.000000000000D+00
    2.000000000000D+00 0.000000000000D+00-1.071020960808D-08 7.800000000000D+01
    5.760000000000D+04 0.000000000000D+00
 7 15 02 22 15 59 44.0 4.423866048455D-04 3.069544618484D-12 0.000000000000D+00
    3.300000000000D+01-6.521875000000D+01 4.494115746212D-09-3.470657909004D-01
   -3.555789589882D-06 8.029215387069D-03 6.150454282761D-06 5.153732545853D+03
    5.758400000000D+04 5.587935447693D-08 2.863596494642D+00 7.450580596924D-08
    9.713436400643D-01 2.647500000000D+02-2.753474496511D+00-8.319632094356D-09
   -5.507372335956D-10 1.000000000000D+00 1.833000000000D+03 0.000000000000D+00
    2.000000000000D+00 0.000000000000D+00-1.117587089539D-08 3.300000000000D+01
    5.758400000000D+04 0.000000000000D+00
10 15 02 22 16 00  0.0-1.644832082093D-04-1.705302565824D-12 0.000000000000D+00
    1.040000000000D+02 3.590625000000D+01 4.729125535619D-09-2.759667385692D+00
    1.557171344757D-06 1.455959363375D-02 1.321546733379D-05 5.153674009323D+03
    5.760000000000D+04 1.937150955200D-07 7.533875891600D-01-2.495944499969D-07
    9.416198627954D-01 1.105000000000D+02 9.229159021690D-01-7.922830391749D-09
    6.678849834296D-11 1.000000000000D+00 1.833000000000D+03 0.000000000000D+00
    2.800000000000D+00 0.000000000000D+00-3.259629011154D-09 1.040000000000D+02
    5.760000000000D+04 0.000000000000D+00
13 15 02 22 16 00  0.0-9.059347212315D-05-3.410605131648D-12 0.000000000000D+00
    1.070000000000D+02 7.278125000000D+01 4.725911217918D-09 4.066566602079D-01
    3.743916749954D-06 5.353153683245D-03 4.852190613747D-06 5.153682237625D+03
    5.760000000000D+04-9.313225746155D-09 1.901549741397D+00-7.450580596924D-08
    9.745787166240D-01 2.939687500000D+02 2.063537045252D+00-8.427494258001D-09
    2.200091636650D-10 1.000000000000D+00 1.833000000000D+03 0.000000000000D+00
    2.000000000000D+00 0.000000000000D+00-1.164153218269D-08 1.070000000000D+02
    5.760000000000D+04 0.000000000000D+00
15 15 02 22 16 00  0.0-2.337973564863D-04-2.273736754432D-12 0.000000000000D+00
    3.200000000000D+01 9.146875000000D+01 5.565945926378D-09 1.604255797042D+00
    4.962086677551D-06 7.083101780154D-03 5.926936864853D-06 5.153596778870D+03
    5.760000000000D+04-9.313225746155D-09 1.746495845614D+00 1.154839992523D-07
    9.337042061737D-01 2.518750000000D+02 3.797154291975D-01-8.793580974498D-09
    2.253665309926D-10 1.000000000000D+00 1.833000000000D+03 0.000000000000D+00
    2.000000000000D+00 0.000000000000D+00-1.071020960808D-08 3.200000000000D+01
    5.760000000000D+04 0.000000000000D+00
28 15 02 22 16 00  0.0 4.213005304337D-04 2.614797267597D-12 0.000000000000D+00
    4.400000000000D+01 3.500000000000D+00 3.379783564128D-09-3.070830081633D+00
    1.341104507446D-07 1.966479769908D-02 1.280382275581D-05 5.153697710037D+03
    5.760000000000D+04 2.048909664154D-07-2.328903743183D+00-3.725290298462D-08
    9.885114591729D-01 1.415937500000D+02-1.669579219099D+00-7.207443086799D-09
    1.500062435378D-10 1.000000000000D+00 1.833000000000D+03 0.000000000000D+00
    2.000000000000D+00 0.000000000000D+00-1.117587089539D-08 4.400000000000D+01
    5.760000000000D+04 0.000000000000D+00
30 15 02 22 15 59 44.0-8.361367508769D-05 1.705302565824D-12 0.000000000000D+00
    4.000000000000D+00-6.843750000000D+01 4.704838740821D-09-2.387922789998D-01
   -3.723427653313D-06 1.022862968966D-03 6.705522537231D-06 5.153768724442D+03
    5.758400000000D+04-1.676380634308D-08 2.914228386338D+00-1.862645149231D-08
    9.570724280111D-01 2.485000000000D+02 2.926138205767D+00-8.329632983362D-09
   -5.403796299319D-10 1.000000000000D+00 1.833000000000D+03 0.000000000000D+00
    2.000000000000D+00 0.000000000000D+00 3.259629011154D-09 4.000000000000D+00
    5.758400000000D+04 0.000000000000D+00
24 15 02 22 16 00  0.0-4.388857632875D-05-5.684341886081D-13 0.000000000000D+00
    2.400000000000D+01-6.075000000000D+01 4.987350532559D-09 4.857187497127D-01
   -3.125518560410D-06 3.088711877353D-03 4.792585968971D-06 5.153681823730D+03
    5.760000000000D+04 4.284083843231D-08 2.824362301569D+00 7.264316082001D-08
    9.545516504620D-01 2.791562500000D+02 2.944672794127D-01-8.566071407756D-09
   -5.064496599871D-10 1.000000000000D+00 1.833000000000D+03 0.000000000000D+00
    2.000000000000D+00 0.000000000000D+00 2.328306436539D-09 2.400000000000D+01
    5.760000000000D+04 0.000000000000D+00
17 15 02 22 16 00  0.0-1.573199406266D-04-2.046363078989D-12 0.000000000000D+00
    6.600000000000D+01 3.443750000000D+01 4.462328728749D-09 2.411282464005D+00
    1.760199666023D-06 1.008354232181D-02 5.465000867844D-06 5.153716308594D+03
    5.760000000000D+04 1.024454832077D-07-1.306108721288D+00-1.415610313416D-07
    9.711705900218D-01 2.781250000000D+02-2.029669574468D+00-8.074264812308D-09
    4.943063180995D-10 1.000000000000D+00 1.833000000000D+03 0.000000000000D+00
    2.000000000000D+00 0.000000000000D+00-1.071020960808D-08 6.600000000000D+01
    5.760000000000D+04 0.000000000000D+00
